[{"OBJECT_NAME":"OBJECT H","OBJECT_ID":"2025-055H","EPOCH":"2026-03-09T23:29:50.051328","MEAN_MOTION":15.30330066,"ECCENTRICITY":0.00075967,"INCLINATION":97.636,"RA_OF_ASC_NODE":211.9572,"ARG_OF_PERICENTER":140.4354,"MEAN_ANOMALY":219.7441,"EPHEMERIS_TYPE":0,"CLASSIFICATION_TYPE":"U","NORAD_CAT_ID":63298,"ELEMENT_SET_NO":999,"REV_AT_EPOCH":5423,"BSTAR":0.0015582864,"MEAN_MOTION_DOT":0.00045901,"MEAN_MOTION_DDOT":0},{"OBJECT_NAME":"STARLINK-34934","OBJECT_ID":"2025-224R","EPOCH":"2026-03-09T06:41:56.567616","MEAN_MOTION":15.30192145,"ECCENTRICITY":0.00014124,"INCLINATION":53.1605,"RA_OF_ASC_NODE":13.0952,"ARG_OF_PERICENTER":84.2251,"MEAN_ANOMALY":275.8911,"EPHEMERIS_TYPE":0,"CLASSIFICATION_TYPE":"U","NORAD_CAT_ID":65897,"ELEMENT_SET_NO":999,"REV_AT_EPOCH":2476,"BSTAR":0.00081097584,"MEAN_MOTION_DOT":0.00023731,"MEAN_MOTION_DDOT":0}]
